{"fetched_at":"2026-03-30T06:02:59Z","count":15439,"tles":[{"name":"STARLINK-11573 [DTC]","line1":"1 62989U 25031J   26087.91244409  .00281841  00000+0  21195-2 0  9994","line2":"2 62989  42.9994 245.7687 0002114 266.0742  93.9884 15.70915996 65731","category":"Starlink"}]}