{
  "norad_id": 62989,
  "name": "STARLINK-11573 [DTC]",
  "history": [
    {
      "epoch": "2026-03-28T21:53:55.169376Z",
      "apogee_km": 357.70151483567133,
      "perigee_km": 354.85420423306095,
      "latitude_deg": 3.5870950607851604e-06,
      "longitude_deg": 90.96274956033693,
      "height_km": 356.14824211179996,
      "semi_major_axis_km": 6734.414859534366,
      "eccentricity": 0.0002114,
      "inclination_deg": 42.9994,
      "raan_deg": 245.7687,
      "arg_perigee_deg": 266.0742,
      "mean_anomaly_deg": 93.9884,
      "mean_motion_rev_day": 15.70915996
    }
  ]
}